[{"OBJECT_NAME":"GONETS-M 16","OBJECT_ID":"2019-096C","EPOCH":"2026-03-09T22:21:38.166336","MEAN_MOTION":12.42888621,"ECCENTRICITY":0.00121387,"INCLINATION":82.522,"RA_OF_ASC_NODE":145.6227,"ARG_OF_PERICENTER":78.4812,"MEAN_ANOMALY":281.763,"EPHEMERIS_TYPE":0,"CLASSIFICATION_TYPE":"U","NORAD_CAT_ID":44907,"ELEMENT_SET_NO":999,"REV_AT_EPOCH":28130,"BSTAR":0.00095207398,"MEAN_MOTION_DOT":1.42e-6,"MEAN_MOTION_DDOT":0},{"OBJECT_NAME":"COSMOS 832","OBJECT_ID":"1976-054H","EPOCH":"2026-03-09T13:06:40.089312","MEAN_MOTION":12.41320998,"ECCENTRICITY":0.00234764,"INCLINATION":73.9972,"RA_OF_ASC_NODE":86.2204,"ARG_OF_PERICENTER":77.7758,"MEAN_ANOMALY":42.7029,"EPHEMERIS_TYPE":0,"CLASSIFICATION_TYPE":"U","NORAD_CAT_ID":8896,"ELEMENT_SET_NO":999,"REV_AT_EPOCH":25353,"BSTAR":-1.8298626e-5,"MEAN_MOTION_DOT":-1.8e-7,"MEAN_MOTION_DDOT":0}]
